sat02097
1 02097U 63038G   20046.83236354  .00000103  00000-0  11861-3 0  9998
2 02097  90.0772 329.9633 0037968 199.5296 225.3312 13.63339378784142
